ORBCOMM FM115           
1 41186U 15081H   25054.83880739  .00002424  00000+0  51182-3 0  9998
2 41186  46.9962 218.5168 0001522 242.4961 117.5771 14.62120943491181
ORBCOMM FM108           
1 41187U 15081J   25055.03372734  .00001721  00000+0  40910-3 0  9999
2 41187  47.0039 281.2351 0002639 154.6735 205.4280 14.57825499490366
ORBCOMM FM117           
1 41188U 15081K   25054.93147331  .00001725  00000+0  40977-3 0  9998
2 41188  47.0008 280.5178 0003014 162.5075 197.5915 14.57831607490314
ORBCOMM FM116           
1 41189U 15081L   25054.92219825  .00002507  00000+0  57933-3 0  9995
2 41189  47.0027  10.4179 0002050 265.0251  95.0400 14.57802191489125
