<?xml version="1.0" encoding="UTF-8"?>
<ndm xmlns:xsi="http://www.w3.org/2001/XMLSchema-instance" xsi:noNamespaceSchemaLocation="https://sanaregistry.org/r/ndmxml_unqualified/ndmxml-2.0.0-master-2.0.xsd">
<omm id="CCSDS_OMM_VERS" version="2.0">
<header><CREATION_DATE/><ORIGINATOR/></header><body><segment><metadata><OBJECT_NAME>ORBCOMM FM115</OBJECT_NAME><OBJECT_ID>2015-081H</OBJECT_ID><CENTER_NAME>EARTH</CENTER_NAME><REF_FRAME>TEME</REF_FRAME><TIME_SYSTEM>UTC</TIME_SYSTEM><MEAN_ELEMENT_THEORY>SGP4</MEAN_ELEMENT_THEORY></metadata><data><meanElements><EPOCH>2025-02-23T20:07:52.958496</EPOCH><MEAN_MOTION>14.62120943</MEAN_MOTION><ECCENTRICITY>.0001522</ECCENTRICITY><INCLINATION>46.9962</INCLINATION><RA_OF_ASC_NODE>218.5168</RA_OF_ASC_NODE><ARG_OF_PERICENTER>242.4961</ARG_OF_PERICENTER><MEAN_ANOMALY>117.5771</MEAN_ANOMALY></meanElements><tleParameters><EPHEMERIS_TYPE>0</EPHEMERIS_TYPE><CLASSIFICATION_TYPE>U</CLASSIFICATION_TYPE><NORAD_CAT_ID>41186</NORAD_CAT_ID><ELEMENT_SET_NO>999</ELEMENT_SET_NO><REV_AT_EPOCH>49118</REV_AT_EPOCH><BSTAR>.51182E-3</BSTAR><MEAN_MOTION_DOT>.2424E-4</MEAN_MOTION_DOT><MEAN_MOTION_DDOT>0</MEAN_MOTION_DDOT></tleParameters></data></segment></body></omm>
<omm id="CCSDS_OMM_VERS" version="2.0">
<header><CREATION_DATE/><ORIGINATOR/></header><body><segment><metadata><OBJECT_NAME>ORBCOMM FM108</OBJECT_NAME><OBJECT_ID>2015-081J</OBJECT_ID><CENTER_NAME>EARTH</CENTER_NAME><REF_FRAME>TEME</REF_FRAME><TIME_SYSTEM>UTC</TIME_SYSTEM><MEAN_ELEMENT_THEORY>SGP4</MEAN_ELEMENT_THEORY></metadata><data><meanElements><EPOCH>2025-02-24T00:48:34.042176</EPOCH><MEAN_MOTION>14.57825499</MEAN_MOTION><ECCENTRICITY>.0002639</ECCENTRICITY><INCLINATION>47.0039</INCLINATION><RA_OF_ASC_NODE>281.2351</RA_OF_ASC_NODE><ARG_OF_PERICENTER>154.6735</ARG_OF_PERICENTER><MEAN_ANOMALY>205.4280</MEAN_ANOMALY></meanElements><tleParameters><EPHEMERIS_TYPE>0</EPHEMERIS_TYPE><CLASSIFICATION_TYPE>U</CLASSIFICATION_TYPE><NORAD_CAT_ID>41187</NORAD_CAT_ID><ELEMENT_SET_NO>999</ELEMENT_SET_NO><REV_AT_EPOCH>49036</REV_AT_EPOCH><BSTAR>.4091E-3</BSTAR><MEAN_MOTION_DOT>.1721E-4</MEAN_MOTION_DOT><MEAN_MOTION_DDOT>0</MEAN_MOTION_DDOT></tleParameters></data></segment></body></omm>
<omm id="CCSDS_OMM_VERS" version="2.0">
<header><CREATION_DATE/><ORIGINATOR/></header><body><segment><metadata><OBJECT_NAME>ORBCOMM FM117</OBJECT_NAME><OBJECT_ID>2015-081K</OBJECT_ID><CENTER_NAME>EARTH</CENTER_NAME><REF_FRAME>TEME</REF_FRAME><TIME_SYSTEM>UTC</TIME_SYSTEM><MEAN_ELEMENT_THEORY>SGP4</MEAN_ELEMENT_THEORY></metadata><data><meanElements><EPOCH>2025-02-23T22:21:19.293984</EPOCH><MEAN_MOTION>14.57831607</MEAN_MOTION><ECCENTRICITY>.0003014</ECCENTRICITY><INCLINATION>47.0008</INCLINATION><RA_OF_ASC_NODE>280.5178</RA_OF_ASC_NODE><ARG_OF_PERICENTER>162.5075</ARG_OF_PERICENTER><MEAN_ANOMALY>197.5915</MEAN_ANOMALY></meanElements><tleParameters><EPHEMERIS_TYPE>0</EPHEMERIS_TYPE><CLASSIFICATION_TYPE>U</CLASSIFICATION_TYPE><NORAD_CAT_ID>41188</NORAD_CAT_ID><ELEMENT_SET_NO>999</ELEMENT_SET_NO><REV_AT_EPOCH>49031</REV_AT_EPOCH><BSTAR>.40977E-3</BSTAR><MEAN_MOTION_DOT>.1725E-4</MEAN_MOTION_DOT><MEAN_MOTION_DDOT>0</MEAN_MOTION_DDOT></tleParameters></data></segment></body></omm>
<omm id="CCSDS_OMM_VERS" version="2.0">
<header><CREATION_DATE/><ORIGINATOR/></header><body><segment><metadata><OBJECT_NAME>ORBCOMM FM116</OBJECT_NAME><OBJECT_ID>2015-081L</OBJECT_ID><CENTER_NAME>EARTH</CENTER_NAME><REF_FRAME>TEME</REF_FRAME><TIME_SYSTEM>UTC</TIME_SYSTEM><MEAN_ELEMENT_THEORY>SGP4</MEAN_ELEMENT_THEORY></metadata><data><meanElements><EPOCH>2025-02-23T22:07:57.928800</EPOCH><MEAN_MOTION>14.57802191</MEAN_MOTION><ECCENTRICITY>.000205</ECCENTRICITY><INCLINATION>47.0027</INCLINATION><RA_OF_ASC_NODE>10.4179</RA_OF_ASC_NODE><ARG_OF_PERICENTER>265.0251</ARG_OF_PERICENTER><MEAN_ANOMALY>95.0400</MEAN_ANOMALY></meanElements><tleParameters><EPHEMERIS_TYPE>0</EPHEMERIS_TYPE><CLASSIFICATION_TYPE>U</CLASSIFICATION_TYPE><NORAD_CAT_ID>41189</NORAD_CAT_ID><ELEMENT_SET_NO>999</ELEMENT_SET_NO><REV_AT_EPOCH>48912</REV_AT_EPOCH><BSTAR>.57933E-3</BSTAR><MEAN_MOTION_DOT>.2507E-4</MEAN_MOTION_DOT><MEAN_MOTION_DDOT>0</MEAN_MOTION_DDOT></tleParameters></data></segment></body></omm>
</ndm>
